# From MPC105243
249P/LINEAR,e,8.3969,239.1803,65.6040,2.761427,0.2147849,0.82009511,318.8679,12/21.0/2019,2000,g 15.5,4.0
# From MPC110497
250P/Larson,e,13.2775,73.6858,45.5659,3.743840,0.1360593,0.40622988,93.3397,12/21.0/2019,2000,g 14.5,4.0
# From MPC104795
251P/LINEAR,e,23.4119,219.4064,31.2389,3.509221,0.1499298,0.50569829,133.0477,12/21.0/2019,2000,g 16.5,2.0
# From MPC102956
252P/LINEAR,e,10.4130,190.9561,343.3283,3.048897,0.1851356,0.67212352,254.8580,12/21.0/2019,2000,g 17.5,4.0
# From MPC112394
253P/PANSTARRS,e,4.9416,146.8736,230.6732,3.468663,0.1525671,0.41319003,90.3665,12/21.0/2019,2000,g 14.5,4.0
# From MPC 81473
254P/McNaught,e,32.5557,129.1740,219.3890,4.622980,0.0991565,0.32138051,331.9260,12/21.0/2019,2000,g 11.0,4.0
# From NK 2214
255P/Levy,e,19.3776,279.1580,180.1554,3.005372,0.1891720,0.68806186,178.4065,12/21.0/2019,2000,g  9.0,4.0
# From MPC 84027
256P/LINEAR,e,27.6388,81.3484,124.3215,4.635578,0.0987525,0.41866660,243.7717,12/21.0/2019,2000,g 14.0,2.0
# From MPC114608
257P/Catalina,e,20.2264,207.7756,117.6707,3.763290,0.1350058,0.43085885,324.2404,12/21.0/2019,2000,g 11.5,4.0
# From MPC 79655
258P/PANSTARRS,e,6.7455,126.2470,26.1271,4.403170,0.1066733,0.20932147,340.6219,12/21.0/2019,2000,g 13.0,4.0
# From MPC106349
259P/Garradd,e,15.8878,51.4713,257.5392,2.731454,0.2183299,0.33827017,189.6219,12/21.0/2019,2000,g 15.5,4.0
# From MPC118098
260P/McNaught,e,15.0518,349.3534,18.3945,3.621724,0.1429984,0.60882450,14.5913,12/21.0/2019,2000,g 13.5,4.0
# From MPEC 2019-TG9
261P/Larson,e,6.0760,291.1626,67.1193,3.488821,0.1512468,0.42289383,28.0275,12/21.0/2019,2000,g 14.0,4.0
# From MPC 82322
262P/McNaught-Russell,e,29.1454,217.9192,171.0008,6.878140,0.0546384,0.81478169,140.8210,12/21.0/2019,2000,g 13.5,4.0
# From MPC 89018
263P/Gibbs,e,11.5496,105.8151,34.4574,3.056687,0.1844283,0.58884856,149.7175,12/21.0/2019,2000,g  9.0,4.0
# From MPC114608
264P/Larsen,e,25.1479,220.9013,346.6352,3.895685,0.1281824,0.37406556,17.6944,12/21.0/2019,2000,g 13.0,4.0
# From MPC 79870
265P/LINEAR,e,14.3579,343.0340,33.4077,4.251572,0.1124294,0.64802291,313.2323,12/21.0/2019,2000,g 14.5,4.0
# From MPEC 2019-TG9
266P/Christensen,e,3.4258,5.0068,97.8613,3.535395,0.1482679,0.33947755,342.1235,12/21.0/2019,2000,g 12.5,4.0
# From MPC114608
267P/LONEOS,e,6.1376,228.6790,114.0788,3.212334,0.1711879,0.61383810,88.4363,12/21.0/2019,2000,g 19.5,4.0
# From MPC 92277
268P/Bernardi,e,16.1260,127.5829,0.1420,4.553707,0.1014277,0.47029888,172.4559,12/21.0/2019,2000,g 14.0,4.0
# From MPC104795
269P/Jedicke,e,7.0706,241.7031,226.0237,7.082899,0.0522863,0.43084951,99.6215,12/21.0/2019,2000,g 10.0,4.0
# From MPC 88332
270P/Gehrels,e,2.9168,222.9591,209.9705,6.671094,0.0572016,0.46679390,136.5404,12/21.0/2019,2000,g  8.0,4.0
# From MPC 92277
271P/van Houten-Lemmon,e,6.8632,9.2923,36.5314,7.051768,0.0526329,0.39292653,123.9696,12/21.0/2019,2000,g 11.0,4.0
# From MPC 81862
272P/NEAT,e,18.0764,109.4662,28.0266,4.452885,0.1048919,0.45417091,261.4467,12/21.0/2019,2000,g 16.0,2.0
# From MPC 82723
273P/Pons-Gambart,e,136.7158,320.4004,20.2765,31.65749,0.0055334,0.97404009,0.0000,12/16.7464/2012,2000,g 11.5,4.0
# From MPC 88332
274P/Tombaugh-Tenagra,e,15.8177,81.3360,38.5417,4.369807,0.1078973,0.43862738,269.3739,12/21.0/2019,2000,g 13.0,4.0
# From MPC 81862
275P/Hermann,e,21.2928,348.7554,174.1219,5.770331,0.0711055,0.71279470,181.4983,12/21.0/2019,2000,g 17.0,4.0
# From MPC114609
276P/Vorobjov,e,14.8320,211.4964,200.1168,5.307419,0.0806081,0.26774812,212.8383,12/21.0/2019,2000,g 11.5,4.0
# From MPC105243
277P/LINEAR,e,16.7793,276.3458,152.2838,3.852459,0.1303458,0.50544532,311.0975,12/21.0/2019,2000,g 14.0,4.0
# From MPC105243
278P/McNaught,e,6.6849,15.4499,238.0731,3.693107,0.1388725,0.43484667,323.0542,12/21.0/2019,2000,g 14.0,4.0
# From MPC100285
279P/La Sagra,e,5.0504,346.2232,5.7559,3.576388,0.1457260,0.39774477,182.7652,12/21.0/2019,2000,g 14.0,4.0
# From MPC 89013
280P/Larsen,e,11.7733,131.4030,104.7867,4.528711,0.1022685,0.41823046,224.8275,12/21.0/2019,2000,g 12.5,4.0
# From MPC 83145
281P/MOSS,e,4.7198,87.1706,26.9757,4.868030,0.0917644,0.17146331,255.2615,12/21.0/2019,2000,g 11.0,4.0
# From MPC xxxxx
282P/,e,5.8093,9.3064,217.4460,4.246079,0.1126476,0.18943692,284.2460,12/21.0/2019,2000,g 13.5,2.0
# From MPEC 2013-M31
283P/Spacewatch,e,14.4541,161.1480,22.2819,4.138869,0.1170527,0.48516847,286.6067,12/21.0/2019,2000,g  9.0,4.0
# From MPC 93589
284P/McNaught,e,11.8586,144.2855,202.6960,3.673848,0.1399659,0.37579545,271.4647,12/21.0/2019,2000,g 13.0,4.0
# From MPC 85339
285P/LINEAR,e,25.0219,185.4809,178.4079,4.509186,0.1029335,0.61782494,244.8136,12/21.0/2019,2000,g 15.0,4.0
# From MPC 90771
286P/Christensen,e,17.0449,283.9648,24.7250,4.112212,0.1181928,0.42506187,256.7539,12/21.0/2019,2000,g 14.0,4.0
# From MPC 96868
287P/Christensen,e,16.3169,139.0359,188.8028,4.168936,0.1157887,0.27026600,210.4799,12/21.0/2019,2000,g 13.5,4.0
# From MPC xxxxx
288P/,e,3.2404,83.1865,280.8068,3.046958,0.1853124,0.20136213,211.0011,12/21.0/2019,2000,g 16.0,2.0
# From MPC118844
289P/Blanpain,e,5.8976,68.9239,9.8466,3.046826,0.1853244,0.68528369,0.0018,12/21.0/2019,2000,g  2.5,4.0
# From MPC 95214
290P/Jager,e,19.5127,303.0131,181.2143,6.132842,0.0648950,0.64786181,136.8050,12/21.0/2019,2000,g 10.5,4.0
# From MPC 89314
291P/NEAT,e,6.3480,238.2875,174.2183,4.500931,0.1032168,0.43777749,232.7499,12/21.0/2019,2000,g 13.0,4.0
# From MPC115887
292P/Li,e,24.2516,91.0038,319.4928,6.111910,0.0652287,0.58736385,140.3153,12/21.0/2019,2000,g 12.5,4.0
# From MPC 92278
293P/Spacewatch,e,9.0572,78.4107,41.1066,3.642618,0.1417698,0.41814862,308.3392,12/21.0/2019,2000,g 14.5,4.0
# From MPC 89013
294P/LINEAR,e,18.2149,312.5984,235.5317,3.204560,0.1718112,0.59416941,3.6554,12/21.0/2019,2000,g 15.5,4.0
# From MPC 93589
295P/LINEAR,e,21.0742,7.4257,72.9842,5.306441,0.0806305,0.61608059,165.5382,12/21.0/2019,2000,g 12.0,4.0
# From MPC 92278
296P/Garradd,e,25.2351,263.6410,350.1095,3.496938,0.1507205,0.47850801,319.0191,12/21.0/2019,2000,g 14.0,4.0
# From MPC102956
297P/Beshore,e,10.3287,97.6612,132.4398,3.443762,0.1542249,0.31941544,298.5161,12/21.0/2019,2000,g 15.0,4.0
# From MPC114609
298P/Christensen,e,7.8705,52.8308,100.6994,3.593715,0.1446734,0.38697757,322.3265,12/21.0/2019,2000,g 15.0,4.0
# From MPC101100
299P/Catalina-PANSTARRS,e,10.4781,271.6224,323.8922,4.382966,0.1074118,0.28224727,189.0632,12/21.0/2019,2000,g 11.5,4.0
# From MPC114609
300P/Catalina,e,5.6766,95.6701,222.8622,2.700000,0.2221562,0.69160816,91.9488,12/21.0/2019,2000,g 16.0,4.0
# From MPC 89014
301P/LINEAR-NEAT,e,10.3485,351.1801,193.7325,5.736804,0.0717297,0.58605172,138.9911,12/21.0/2019,2000,g 13.0,4.0
# From MPC115887
302P/Lemmon-PANSTARRS,e,6.0336,121.7533,208.1586,4.278271,0.1113786,0.22954553,148.0320,12/21.0/2019,2000,g 12.5,4.0
# From MPC 92278
303P/NEAT,e,7.0150,347.9724,356.8457,5.050649,0.0868327,0.50974441,164.4104,12/21.0/2019,2000,g 13.5,4.0
# From MPC 92987
304P/Ory,e,2.6072,58.9528,335.1829,3.152065,0.1761211,0.60063893,318.5368,12/21.0/2019,2000,g 16.5,4.0
# From MPC101100
305P/Skiff,e,11.6383,240.1420,147.2651,4.645758,0.0984281,0.69251298,183.3060,12/21.0/2019,2000,g 18.0,4.0
# From MPC 92278
306P/LINEAR,e,8.3103,341.3842,0.7996,3.121683,0.1786985,0.59321007,354.1283,12/21.0/2019,2000,g 19.0,4.0
# From MPC 92278
307P/LINEAR,e,4.4298,158.1155,222.1911,5.796540,0.0706238,0.67369991,129.0802,12/21.0/2019,2000,g 15.0,4.0
# From MPC109148
308P/Lagerkvist-Carsenty,e,4.8491,63.1204,333.6735,6.610580,0.0579889,0.36238048,98.0655,12/21.0/2019,2000,g 13.0,2.0
# From MPC 94284
309P/LINEAR,e,17.0271,10.1605,50.0096,4.369975,0.1078911,0.61768801,191.4672,12/21.0/2019,2000,g 15.0,4.0
# From MPC 98566
310P/Hill,e,13.1296,8.9334,31.9144,4.176759,0.1154636,0.42176520,197.7899,12/21.0/2019,2000,g 13.5,4.0
# From MPC109593
311P/PANSTARRS,e,4.9700,279.2271,144.5310,2.188602,0.3044064,0.11525463,271.3219,12/21.0/2019,2000,g 17.0,4.0
# From MPC 92279
312P/NEAT,e,19.7599,144.6904,207.5289,3.468556,0.1525742,0.42838687,317.4354,12/21.0/2019,2000,g 16.0,4.0
# From MPEC 2019-TG9
313P/Gibbs,e,10.9833,105.9720,254.5858,3.161465,0.1753362,0.23486747,339.6446,12/21.0/2019,2000,g 15.0,4.0
# From MPC105243
314P/Montani,e,3.9790,267.6198,214.2454,7.278365,0.0501942,0.41662424,58.5897,12/21.0/2019,2000,g  9.5,4.0
# From MPC115888
315P/LONEOS,e,17.8985,69.3245,65.6774,4.949595,0.0895055,0.52272348,99.4441,12/21.0/2019,2000,g 11.0,4.0
# From MPC 92279
316P/LONEOS-Christensen,e,9.8958,246.7732,193.8967,4.340546,0.1089902,0.16245230,164.6694,12/21.0/2019,2000,g 13.5,4.0
# From MPC102103
317P/WISE,e,11.9510,275.5199,334.8926,2.965719,0.1929785,0.57044678,305.9336,12/21.0/2019,2000,g 17.5,4.0
# From MPC102103
318P/McNaught-Hartley,e,17.8710,35.6732,313.0914,7.496519,0.0480192,0.67466217,72.9818,12/21.0/2019,2000,g  8.5,6.0
# From MPC 97499
319P/Catalina-McNaught,e,15.0948,111.3776,203.6003,3.569647,0.1461390,0.66632773,238.4871,12/21.0/2019,2000,g 15.0,4.0
# From MPC 96281
320P/McNaught,e,4.9088,295.9287,0.7579,3.094559,0.1810530,0.68566692,288.8183,12/21.0/2019,2000,g 20.5,4.0
# From MPC105243
321P/SOHO,e,20.0430,165.0500,172.7202,2.422907,0.2613359,0.98106052,0.0000,01/17.2509/2020,2000,g 20.0,4.0
# From MPC102103
322P/SOHO,e,11.4619,351.4811,56.9229,2.508801,0.2480304,0.97978202,0.0000,08/31.5160/2019,2000,g 19.0,4.0
# From MPEC 2016-Y36
323P/SOHO,e,5.3331,324.3756,353.0426,2.582588,0.2374769,0.98481217,0.0000,01/17.7505/2021,2000,g 20.0,4.0
# From MPC108598
324P/La Sagra,e,21.4240,270.6421,58.2130,3.094049,0.1810979,0.15444450,268.6967,12/21.0/2019,2000,g 13.0,4.0
# From MPC114609
325P/Yang-Gao,e,16.7022,257.5800,343.6761,3.524287,0.1489694,0.59386644,236.5254,12/21.0/2019,2000,g 14.0,4.0
# From MPC103849
326P/Hill,e,2.4707,99.8143,278.6078,4.065221,0.1202480,0.31701653,182.9734,12/21.0/2019,2000,g 13.5,4.0
# From MPC 97499
327P/Van Ness,e,36.2341,173.9656,185.0206,3.563409,0.1465230,0.56253149,215.4010,12/21.0/2019,2000,g 16.0,4.0
# From MPC109148
